BEIDOU-3S IGSO-1S       
1 40549U 15019A   26183.80025122 -.00000190  00000+0  00000+0 0  9997
2 40549  49.1798 295.2769 0076860 219.1125 144.2493  1.00680073 41232
NAVSTAR 74 (USA 262)    
1 40730U 15033A   26192.65233900  .00000013  00000+0  00000+0 0  9996
2 40730  53.9638 266.0769 0115288  30.2822 330.4526  2.00554867 80488
BEIDOU-3S M2S           
1 40748U 15037A   26191.41220186 -.00000067  00000+0  00000+0 0  9994
2 40748  54.8489 301.2473 0009273 257.2247 102.6907  1.86232238 74554
BEIDOU-3S M1S           
1 40749U 15037B   26192.69053808 -.00000066  00000+0  00000+0 0  9990
2 40749  54.8440 301.1898 0002834  63.3740 296.6751  1.86254753 74582
GSAT0206 (GALILEO 10)   
1 40890U 15045B   26191.33403541  .00000090  00000+0  00000+0 0  9995
2 40890  54.9400 220.9648 0002065 329.8405  30.2271  1.70473539 67434
BEIDOU-3S IGSO-2S       
1 40938U 15053A   26192.65474799 -.00000091  00000+0  00000+0 0  9998
2 40938  49.1834 258.4907 0066347 193.2506 167.1648  1.00253704 39605
NAVSTAR 75 (USA 265)    
1 41019U 15062A   26192.20876992 -.00000050  00000+0  00000+0 0  9996
2 41019  56.9756  29.8863 0112692 230.9012 128.1431  2.00566836 78314
GSAT-15                 
1 41028U 15065A   26193.14558608  .00000000  00000+0  00000+0 0  9998
2 41028   0.0230  46.4211 0003550  46.1893 343.3564  1.00269124 39043
GSAT0209 (GALILEO 12)   
1 41174U 15079A   26189.15594789 -.00000008  00000+0  00000+0 0  9990
2 41174  55.8390 100.6867 0004997 350.6288   9.3765  1.70473596 65135
GSAT0208 (GALILEO 11)   
1 41175U 15079B   26189.37634046 -.00000009  00000+0  00000+0 0  9997
2 41175  55.8379 100.6775 0004423  15.9812 344.0466  1.70473357 65557
IRNSS-1E                
1 41241U 16003A   26191.58253116 -.00000316  00000+0  00000+0 0  9991
2 41241  33.2836  59.4106 0019285 178.7449  11.7354  1.00267797 38314
NAVSTAR 76 (USA 266)    
1 41328U 16007A   26192.30027792 -.00000038  00000+0  00000+0 0  9992
2 41328  55.5386  88.5035 0096605 247.6261 111.3816  2.00575559 76322
COSMOS 2514 [GLONASS-M] 
1 41330U 16008A   26192.21743841 -.00000062  00000+0  00000+0 0  9993
2 41330  65.0058 312.1821 0012190 200.7153 159.2416  2.13102486 81134
BEIDOU-2 IGSO-6         
1 41434U 16021A   26177.11016981 -.00000145  00000+0  00000+0 0  9995
2 41434  60.2385  37.9495 0057558 231.0163 137.2672  1.00258926 37578
IRNSS-1G                
1 41469U 16027A   26192.66190655 -.00000334  00000+0  00000+0 0  9997
2 41469   5.2542  96.9079 0005969   9.8373 190.7801  1.00272899 37423
GSAT0211 (GALILEO 14)   
1 41549U 16030A   26191.84633793  .00000090  00000+0  00000+0 0  9992
2 41549  55.0905 221.0437 0003314 318.6557  41.3997  1.70473689 63078
GSAT0210 (GALILEO 13)   
1 41550U 16030B   26190.93041336  .00000089  00000+0  00000+0 0  9997
2 41550  55.0899 221.0670 0004683 245.4873 114.5425  1.70474002 63056
BEIDOU-2 G7             
1 41586U 16037A   26193.07683522 -.00000352  00000+0  00000+0 0  9994
2 41586   1.7780  69.4803 0006011 359.6453 359.0222  1.00275208  7131
EUTELSAT 117 WEST B     
1 41589U 16038B   26193.04078119 -.00000008  00000+0  00000+0 0  9993
2 41589   0.0199 181.4881 0000273 284.2062  81.9354  1.00270304 36911
GSAT0207 (GALILEO 15)   
1 41859U 16069A   26192.38209896 -.00000028  00000+0  00000+0 0  9993
2 41859  55.5121 100.4166 0004616 338.4442  21.5452  1.70473452 59816
GSAT0212 (GALILEO 16)   
1 41860U 16069B   26192.23550129 -.00000028  00000+0  00000+0 0  9997
2 41860  55.5101 100.4158 0004388   9.8985 350.1187  1.70473636 60063
GSAT0213 (GALILEO 17)   
1 41861U 16069C   26191.42949498 -.00000024  00000+0  00000+0 0  9995
2 41861  55.5116 100.4460 0004394 317.3165  42.6580  1.70474095 59912
GSAT0214 (GALILEO 18)   
1 41862U 16069D   26192.16233916 -.00000028  00000+0  00000+0 0  9993
2 41862  55.5107 100.4185 0003821 326.4011  33.5832  1.70473737 60050
SES-15                  
1 42709U 17026A   26192.53939948  .00000064  00000+0  00000+0 0  9996
2 42709   0.0255 325.0521 0000849 168.0714 221.3537  1.00278530  7671
QZS-2 (MICHIBIKI-2)     
1 42738U 17028A   26192.46365076 -.00000092  00000+0  00000+0 0  9999
2 42738  39.3917 242.7958 0757855 269.5568  86.3006  1.00277700  7872
QZS-3 (MICHIBIKI-3)     
1 42917U 17048A   26193.01781442 -.00000344  00000+0  00000+0 0  9991
2 42917   0.0706 217.3177 0002485 268.4065 297.6276  1.00273648 32506
COSMOS 2522 [GLONASS-M] 
1 42939U 17055A   26191.11660740  .00000122  00000+0  00000+0 0  9992
2 42939  64.0805 191.1038 0010910 240.8947 119.0275  2.13101919 68466
QZS-4 (MICHIBIKI-4)     
1 42965U 17062A   26192.89013762 -.00000326  00000+0  00000+0 0  9998
2 42965  40.0939 343.1714 0747476 268.4974 137.4815  1.00290892 32051
BEIDOU-3 M1             
1 43001U 17069A   26192.29607689 -.00000044  00000+0  00000+0 0  9995
2 43001  56.7122  62.2913 0009357 328.5937  31.4164  1.86231117 59055
BEIDOU-3 M2             
1 43002U 17069B   26191.16097920 -.00000046  00000+0  00000+0 0  9994
2 43002  56.7107  62.3639 0008254 357.9796   2.0799  1.86230592 59020
GSAT0215 (GALILEO 19)   
1 43055U 17079A   26192.06539411  .00000090  00000+0  00000+0 0  9997
2 43055  55.0682 220.8492 0003697 267.9007  92.1373  1.70474334 53396
